ONEWEB-0338             
1 49204U 21083U   23339.35412797 -.00000088  00000+0 -24789-3 0  9991
2 49204  87.9192  98.5650 0001377 120.7015 239.4254 13.20772334114731
ONEWEB-0339             
1 49205U 21083V   23339.48256501  .00000415  00000+0  11013-2 0  9992
2 49205  87.8995 144.2637 0001699  90.6899 269.4425 13.13469758109505
ONEWEB-0340             
1 49206U 21083W   23339.50262941  .00000001  00000+0 -29352-4 0  9990
2 49206  87.9140 159.4058 0001671  86.3001 273.8322 13.18685427108109
ONEWEB-0341             
1 49207U 21083X   23339.51107099  .00000024  00000+0  27474-4 0  9991
2 49207  87.9219 159.4152 0002121 105.1354 255.0013 13.18688142108122
ONEWEB-0342             
1 49208U 21083Y   23339.36044497  .00000180  00000+0  41087-3 0  9995
2 49208  87.9185  98.5901 0001418 111.7516 248.3768 13.20772621114703
ONEWEB-0343             
1 49209U 21083Z   23339.50684336  .00001168  00000+0  29308-2 0  9992
2 49209  87.9206 159.4387 0002360 120.3148 239.8218 13.18681972108171
ONEWEB-0344             
1 49210U 21083AA  23339.52537871  .00000335  00000+0  88363-3 0  9999
2 49210  87.8988 144.2616 0001694  85.4348 274.6974 13.13457924109516
ONEWEB-0345             
1 49211U 21083AB  23339.54284354  .00000513  00000+0  13697-2 0  9992
2 49211  87.8978 144.2412 0002038  66.0460 294.0882 13.13467915110824
